{"type": "FeatureCollection", "features": [ {"type": "Feature", "properties": {"norad_id": 43622, "name": "BEIDOU-3 M13 (C32)", "group": "beidou", "lat": -25.41630301029502, "lon": 50.591634129872666, "alt_km": 21517.24554220903, "timestamp": "2025-12-09T09:46:47.910629+00:00", "meta": {"OBJECT_NAME": "BEIDOU-3 M13 (C32)", "OBJECT_ID": "2018-072A", "EPOCH": "2025-12-08T09:06:52.153056", "MEAN_MOTION": 1.86230751, "ECCENTRICITY": 0.00059246, "INCLINATION": 56.4552, "RA_OF_ASC_NODE": 68.9648, "ARG_OF_PERICENTER": 298.4192, "MEAN_ANOMALY": 61.5427, "EPHEMERIS_TYPE": 0, "CLASSIFICATION_TYPE": "U", "NORAD_CAT_ID": 43622, "ELEMENT_SET_NO": 999, "REV_AT_EPOCH": 4910, "BSTAR": 0, "MEAN_MOTION_DOT": -4.5e-07, "MEAN_MOTION_DDOT": 0}, "tle": {"line1": "1 43622U 18072A   25342.37977029 -.00000045  00000+0  00000+0 0  9993", "line2": "2 43622  56.4552  68.9648 0005924 298.4192  61.5427  1.86230751 49104"}}, "geometry": {"type": "Point", "coordinates": [50.591634129872666, -25.41630301029502]}}, {"type": "Feature", "properties": {"norad_id": 43623, "name": "BEIDOU-3 M14 (C33)", "group": "beidou", "lat": 45.770186042580875, "lon": 111.81611844596334, "alt_km": 21521.579377366907, "timestamp": "2025-12-09T09:46:47.910640+00:00", "meta": {"OBJECT_NAME": "BEIDOU-3 M14 (C33)", "OBJECT_ID": "2018-072B", "EPOCH": "2025-12-08T18:46:22.315872", "MEAN_MOTION": 1.86230614, "ECCENTRICITY": 0.0003183, "INCLINATION": 56.4575, "RA_OF_ASC_NODE": 68.9457, "ARG_OF_PERICENTER": 336.0436, "MEAN_ANOMALY": 23.9639, "EPHEMERIS_TYPE": 0, "CLASSIFICATION_TYPE": "U", "NORAD_CAT_ID": 43623, "ELEMENT_SET_NO": 999, "REV_AT_EPOCH": 4910, "BSTAR": 0, "MEAN_MOTION_DOT": -4.6e-07, "MEAN_MOTION_DDOT": 0}, "tle": {"line1": "1 43623U 18072B   25342.78220273 -.00000046  00000+0  00000+0 0  9992", "line2": "2 43623  56.4575  68.9457 0003183 336.0436  23.9639  1.86230614 49108"}}, "geometry": {"type": "Point", "coordinates": [111.81611844596334, 45.770186042580875]}}, {"type": "Feature", "properties": {"norad_id": 43647, "name": "BEIDOU-3 M16 (C35)", "group": "beidou", "lat": -36.176974326051386, "lon": -85.12379924837083, "alt_km": 21524.138975062797, "timestamp": "2025-12-09T09:46:47.910682+00:00", "meta": {"OBJECT_NAME": "BEIDOU-3 M16 (C35)", "OBJECT_ID": "2018-078A", "EPOCH": "2025-12-08T09:40:29.399520", "MEAN_MOTION": 1.86232196, "ECCENTRICITY": 0.00070845, "INCLINATION": 54.2661, "RA_OF_ASC_NODE": 306.6728, "ARG_OF_PERICENTER": 18.9222, "MEAN_ANOMALY": 341.0919, "EPHEMERIS_TYPE": 0, "CLASSIFICATION_TYPE": "U", "NORAD_CAT_ID": 43647, "ELEMENT_SET_NO": 999, "REV_AT_EPOCH": 4860, "BSTAR": 0, "MEAN_MOTION_DOT": -7.3e-07, "MEAN_MOTION_DDOT": 0}, "tle": {"line1": "1 43647U 18078A   25342.40311805 -.00000073  00000+0  00000+0 0  9995", "line2": "2 43647  54.2661 306.6728 0007084  18.9222 341.0919  1.86232196 48608"}}, "geometry": {"type": "Point", "coordinates": [-85.12379924837083, -36.176974326051386]}}, {"type": "Feature", "properties": {"norad_id": 43648, "name": "BEIDOU-3 M15 (C34)", "group": "beidou", "lat": -36.271584723086775, "lon": 158.48999577925204, "alt_km": 21541.342714208542, "timestamp": "2025-12-09T09:46:47.910703+00:00", "meta": {"OBJECT_NAME": "BEIDOU-3 M15 (C34)", "OBJECT_ID": "2018-078B", "EPOCH": "2025-12-05T07:27:18.667008", "MEAN_MOTION": 1.86231965, "ECCENTRICITY": 0.00036856, "INCLINATION": 54.2646, "RA_OF_ASC_NODE": 306.7819, "ARG_OF_PERICENTER": 17.7509, "MEAN_ANOMALY": 342.2442, "EPHEMERIS_TYPE": 0, "CLASSIFICATION_TYPE": "U", "NORAD_CAT_ID": 43648, "ELEMENT_SET_NO": 999, "REV_AT_EPOCH": 4856, "BSTAR": 0, "MEAN_MOTION_DOT": -6.9e-07, "MEAN_MOTION_DDOT": 0}, "tle": {"line1": "1 43648U 18078B   25339.31063272 -.00000069  00000+0  00000+0 0  9999", "line2": "2 43648  54.2646 306.7819 0003685  17.7509 342.2442  1.86231965 48564"}}, "geometry": {"type": "Point", "coordinates": [158.48999577925204, -36.271584723086775]}}, {"type": "Feature", "properties": {"norad_id": 43683, "name": "BEIDOU-3 G1 (C59)", "group": "beidou", "lat": -2.567851613645951, "lon": 5.157330867830028, "alt_km": 35793.465664261435, "timestamp": "2025-12-09T09:46:47.910718+00:00", "meta": {"OBJECT_NAME": "BEIDOU-3 G1 (C59)", "OBJECT_ID": "2018-085A", "EPOCH": "2025-12-08T17:41:39.231168", "MEAN_MOTION": 1.00272068, "ECCENTRICITY": 0.0001779, "INCLINATION": 2.5974, "RA_OF_ASC_NODE": 103.0581, "ARG_OF_PERICENTER": 62.9114, "MEAN_ANOMALY": 317.2543, "EPHEMERIS_TYPE": 0, "CLASSIFICATION_TYPE": "U", "NORAD_CAT_ID": 43683, "ELEMENT_SET_NO": 999, "REV_AT_EPOCH": 2615, "BSTAR": 0, "MEAN_MOTION_DOT": -2.75e-06, "MEAN_MOTION_DDOT": 0}, "tle": {"line1": "1 43683U 18085A   25342.73725962 -.00000275  00000+0  00000+0 0  9996", "line2": "2 43683   2.5974 103.0581 0001779  62.9114 317.2543  1.00272068 26153"}}, "geometry": {"type": "Point", "coordinates": [5.157330867830028, -2.567851613645951]}}, {"type": "Feature", "properties": {"norad_id": 43706, "name": "BEIDOU-3 M17 (C36)", "group": "beidou", "lat": 44.30803878743902, "lon": -36.11607436136856, "alt_km": 21540.36946765796, "timestamp": "2025-12-09T09:46:47.910730+00:00", "meta": {"OBJECT_NAME": "BEIDOU-3 M17 (C36)", "OBJECT_ID": "2018-093A", "EPOCH": "2025-12-07T14:48:21.849120", "MEAN_MOTION": 1.86228285, "ECCENTRICITY": 0.0006281, "INCLINATION": 54.1726, "RA_OF_ASC_NODE": 188.7957, "ARG_OF_PERICENTER": 306.8876, "MEAN_ANOMALY": 53.1241, "EPHEMERIS_TYPE": 0, "CLASSIFICATION_TYPE": "U", "NORAD_CAT_ID": 43706, "ELEMENT_SET_NO": 999, "REV_AT_EPOCH": 4797, "BSTAR": 0, "MEAN_MOTION_DOT": 5.7e-07, "MEAN_MOTION_DDOT": 0}, "tle": {"line1": "1 43706U 18093A   25341.61691955  .00000057  00000+0  00000+0 0  9998", "line2": "2 43706  54.1726 188.7957 0006281 306.8876  53.1241  1.86228285 47972"}}, "geometry": {"type": "Point", "coordinates": [-36.11607436136856, 44.30803878743902]}}, {"type": "Feature", "properties": {"norad_id": 43707, "name": "BEIDOU-3 M18 (C37)", "group": "beidou", "lat": -26.458043818499767, "lon": 29.809232949292124, "alt_km": 21545.286634825738, "timestamp": "2025-12-09T09:46:47.910742+00:00", "meta": {"OBJECT_NAME": "BEIDOU-3 M18 (C37)", "OBJECT_ID": "2018-093B", "EPOCH": "2025-12-08T00:22:06.139776", "MEAN_MOTION": 1.86226539, "ECCENTRICITY": 0.00063651, "INCLINATION": 54.1733, "RA_OF_ASC_NODE": 188.774, "ARG_OF_PERICENTER": 352.0648, "MEAN_ANOMALY": 7.9918, "EPHEMERIS_TYPE": 0, "CLASSIFICATION_TYPE": "U", "NORAD_CAT_ID": 43707, "ELEMENT_SET_NO": 999, "REV_AT_EPOCH": 4797, "BSTAR": 0, "MEAN_MOTION_DOT": 5.3e-07, "MEAN_MOTION_DDOT": 0}, "tle": {"line1": "1 43707U 18093B   25342.01534884  .00000053  00000+0  00000+0 0  9997", "line2": "2 43707  54.1733 188.7740 0006365 352.0648   7.9918  1.86226539 47972"}}, "geometry": {"type": "Point", "coordinates": [29.809232949292124, -26.458043818499767]}}, {"type": "Feature", "properties": {"norad_id": 44204, "name": "BEIDOU-3 IGSO-1 (C38)", "group": "beidou", "lat": -48.070909898529344, "lon": -3.4969063230213875, "alt_km": 35774.4882623163, "timestamp": "2025-12-09T09:46:47.910755+00:00", "meta": {"OBJECT_NAME": "BEIDOU-3 IGSO-1 (C38)", "OBJECT_ID": "2019-023A", "EPOCH": "2025-11-19T14:15:02.708640", "MEAN_MOTION": 1.00252177, "ECCENTRICITY": 0.0026966, "INCLINATION": 58.4003, "RA_OF_ASC_NODE": 39.8168, "ARG_OF_PERICENTER": 221.2202, "MEAN_ANOMALY": 126.9723, "EPHEMERIS_TYPE": 0, "CLASSIFICATION_TYPE": "U", "NORAD_CAT_ID": 44204, "ELEMENT_SET_NO": 999, "REV_AT_EPOCH": 510, "BSTAR": 0, "MEAN_MOTION_DOT": -2.26e-06, "MEAN_MOTION_DDOT": 0}, "tle": {"line1": "1 44204U 19023A   25323.59378135 -.00000226  00000+0  00000+0 0  9994", "line2": "2 44204  58.4003  39.8168 0026966 221.2202 126.9723  1.00252177  5102"}}, "geometry": {"type": "Point", "coordinates": [-3.4969063230213875, -48.070909898529344]}}, {"type": "Feature", "properties": {"norad_id": 44231, "name": "BEIDOU-2 G8 (C01)", "group": "beidou", "lat": -1.4892307921616976, "lon": 9.70109448802494, "alt_km": 35759.9552465009, "timestamp": "2025-12-09T09:46:47.910771+00:00", "meta": {"OBJECT_NAME": "BEIDOU-2 G8 (C01)", "OBJECT_ID": "2019-027A", "EPOCH": "2025-12-08T22:51:03.351168", "MEAN_MOTION": 1.00268559, "ECCENTRICITY": 0.0008514, "INCLINATION": 1.6519, "RA_OF_ASC_NODE": 74.67, "ARG_OF_PERICENTER": 254.7985, "MEAN_ANOMALY": 235.7828, "EPHEMERIS_TYPE": 0, "CLASSIFICATION_TYPE": "U", "NORAD_CAT_ID": 44231, "ELEMENT_SET_NO": 999, "REV_AT_EPOCH": 2417, "BSTAR": 0, "MEAN_MOTION_DOT": -2.46e-06, "MEAN_MOTION_DDOT": 0}, "tle": {"line1": "1 44231U 19027A   25342.95212212 -.00000246  00000+0  00000+0 0  9994", "line2": "2 44231   1.6519  74.6700 0008514 254.7985 235.7828  1.00268559 24175"}}, "geometry": {"type": "Point", "coordinates": [9.70109448802494, -1.4892307921616976]}}, {"type": "Feature", "properties": {"norad_id": 44337, "name": "BEIDOU-3 IGSO-2 (C39)", "group": "beidou", "lat": -3.2922004267840923, "lon": -17.18750523469372, "alt_km": 35638.023666754496, "timestamp": "2025-12-09T09:46:47.910783+00:00", "meta": {"OBJECT_NAME": "BEIDOU-3 IGSO-2 (C39)", "OBJECT_ID": "2019-035A", "EPOCH": "2025-12-08T21:18:38.600064", "MEAN_MOTION": 1.00272014, "ECCENTRICITY": 0.0037301, "INCLINATION": 55.2241, "RA_OF_ASC_NODE": 160.5341, "ARG_OF_PERICENTER": 202.3504, "MEAN_ANOMALY": 154.1975, "EPHEMERIS_TYPE": 0, "CLASSIFICATION_TYPE": "U", "NORAD_CAT_ID": 44337, "ELEMENT_SET_NO": 999, "REV_AT_EPOCH": 2375, "BSTAR": 0, "MEAN_MOTION_DOT": -7.9e-07, "MEAN_MOTION_DDOT": 0}, "tle": {"line1": "1 44337U 19035A   25342.88794676 -.00000079  00000+0  00000+0 0  9995", "line2": "2 44337  55.2241 160.5341 0037301 202.3504 154.1975  1.00272014 23758"}}, "geometry": {"type": "Point", "coordinates": [-17.18750523469372, -3.2922004267840923]}}]}